[{"OBJECT_NAME":"STARLINK-34674","OBJECT_ID":"2025-200G","EPOCH":"2026-03-09T18:06:29.318400","MEAN_MOTION":15.05647633,"ECCENTRICITY":5.158e-5,"INCLINATION":97.6024,"RA_OF_ASC_NODE":139.9092,"ARG_OF_PERICENTER":179.0799,"MEAN_ANOMALY":181.0429,"EPHEMERIS_TYPE":0,"CLASSIFICATION_TYPE":"U","NORAD_CAT_ID":65526,"ELEMENT_SET_NO":999,"REV_AT_EPOCH":2915,"BSTAR":-5.9284965e-5,"MEAN_MOTION_DOT":-9.16e-6,"MEAN_MOTION_DDOT":0},{"OBJECT_NAME":"RAPIDEYE 2","OBJECT_ID":"2008-040A","EPOCH":"2026-03-09T16:28:01.823808","MEAN_MOTION":15.04945954,"ECCENTRICITY":0.00177122,"INCLINATION":97.4373,"RA_OF_ASC_NODE":102.2221,"ARG_OF_PERICENTER":194.2548,"MEAN_ANOMALY":165.8182,"EPHEMERIS_TYPE":0,"CLASSIFICATION_TYPE":"U","NORAD_CAT_ID":33312,"ELEMENT_SET_NO":999,"REV_AT_EPOCH":95100,"BSTAR":0.0001818221,"MEAN_MOTION_DOT":2.525e-5,"MEAN_MOTION_DDOT":0}]
